0 FENGYUN 1C DEB
1 30082U 99025QK  13282.13798664  .00002019  00000-0  33468-3 0  9649
2 30082 098.9036 095.4058 0188454 053.5390 037.0684 14.60433451357910
0 FENGYUN 1C DEB
1 30082U 99025QK  13283.15967031  .00002626  00000-0  43214-3 0  9653
2 30082 098.9039 096.5033 0188476 050.4198 008.6275 14.60435559358062
0 FENGYUN 1C DEB
1 30082U 99025QK  13284.19250431  .00002733  00000-0  44930-3 0  9663
2 30082 098.9036 097.6135 0188451 047.2442 038.8440 14.60438810358212
0 FENGYUN 1C DEB
1 30082U 99025QK  13285.49245667  .00002249  00000-0  37170-3 0  9673
2 30082 098.9033 099.0107 0188375 043.2799 033.4476 14.60445348358405
0 FENGYUN 1C DEB
1 30082U 99025QK  13286.80293352  .00002404  00000-0  39661-3 0  9684
2 30082 098.9030 100.4194 0188289 039.2901 083.4086 14.60450359358599
0 FENGYUN 1C DEB
1 30082U 99025QK  13288.16656984  .00003793  00000-0  61938-3 0  9694
2 30082 098.9028 101.8852 0188223 035.1198 052.9041 14.60459884358799
0 FENGYUN 1C DEB
1 30082U 99025QK  13289.19381483  .00003504  00000-0  57307-3 0  9704
2 30082 098.9029 102.9893 0188139 031.9855 053.8089 14.60465612358942
0 FENGYUN 1C DEB
1 30082U 99025QK  13290.35840272  .00003147  00000-0  51584-3 0  9715
2 30082 098.9030 104.2410 0188074 028.4258 056.8410 14.60471795359110
0 FENGYUN 1C DEB
1 30082U 99025QK  13291.44909698  .00002781  00000-0  45729-3 0  9722
2 30082 098.9032 105.4134 0188027 025.0855 031.3966 14.60476816359272
0 FENGYUN 1C DEB
1 30082U 99025QK  13292.47670774  .00002889  00000-0  47465-3 0  9735
2 30082 098.9034 106.5183 0187973 021.9421 034.2925 14.60480846359425
0 FENGYUN 1C DEB
1 30082U 99025QK  13294.19502692  .00003245  00000-0  53186-3 0  9744
2 30082 098.9037 108.3655 0187861 016.6887 068.7807 14.60488091359673
0 FENGYUN 1C DEB
1 30082U 99025QK  13295.49231270  .00003388  00000-0  55483-3 0  9750
2 30082 098.9038 109.7601 0187807 012.7175 049.6135 14.60495308359869
